NORAD_CAT_ID,OBJECT_NAME,OBJECT_TYPE,EPOCH,MEAN_MOTION,ECCENTRICITY,INCLINATION,RA_OF_ASC_NODE,ARG_OF_PERICENTER,MEAN_ANOMALY,BSTAR,MEAN_MOTION_DOT,MEAN_MOTION_DDOT,TLE_LINE0,TLE_LINE1,TLE_LINE2,SEMIMAJOR_AXIS,PERIOD,APOGEE,PERIGEE,DECAYED
52466.0,STARLINK-3840,PAYLOAD,2024-04-15 14:34:18,15.08830387,0.0001176,53.2161,290.6585,85.9943,274.1183,1.1258e-05,-1.09e-06,0.0,0 STARLINK-3840,1 52466U 22049R   24106.60715741 -.00000109  00000-0  11258-4 0  9996,2 52466  53.2161 290.6585 0001176  85.9943 274.1183 15.08830387107615,6917.91,95.438,540.588,538.961,0.0
52466.0,STARLINK-3840,PAYLOAD,2024-04-15 20:55:50,15.08836635,0.0001195,53.2161,289.4689,87.2106,272.9022,5.5045e-05,5.88e-06,0.0,0 STARLINK-3840,1 52466U 22049R   24106.87211303  .00000588  00000-0  55045-4 0  9992,2 52466  53.2161 289.4689 0001195  87.2106 272.9022 15.08836635107815,6917.891,95.438,540.582,538.929,0.0
52466.0,STARLINK-3840,PAYLOAD,2024-04-16 04:52:47,15.08784955,0.0001492,53.2161,287.9827,84.7746,275.3416,0.00073981,0.00011488,0.0,0 STARLINK-3840,1 52466U 22049R   24107.20332993  .00011488  00000-0  73981-3 0  9998,2 52466  53.2161 287.9827 0001492  84.7746 275.3416 15.08784955107860,6918.049,95.441,540.946,538.881,0.0
52466.0,STARLINK-3840,PAYLOAD,2024-04-16 19:11:13,15.08851241,0.0001134,53.2161,285.3057,85.1473,274.9649,0.00016349,2.316e-05,0.0,0 STARLINK-3840,1 52466U 22049R   24107.79946007  .00002316  00000-0  16349-3 0  9994,2 52466  53.2161 285.3057 0001134  85.1473 274.9649 15.08851241107958,6917.846,95.437,540.496,538.927,0.0
52466.0,STARLINK-3840,PAYLOAD,2024-04-17 19:02:01,15.08839041,0.000115,53.2162,280.8441,88.6952,271.4172,6.0225e-05,6.71e-06,0.0,0 STARLINK-3840,1 52466U 22049R   24108.79306742  .00000671  00000-0  60225-4 0  9996,2 52466  53.2162 280.8441 0001150  88.6952 271.4172 15.08839041108109,6917.883,95.438,540.544,538.953,0.0
52466.0,STARLINK-3840,PAYLOAD,2024-04-18 10:55:52,15.0883922,0.0001214,53.2162,277.8713,77.9521,282.1607,-9.5397e-05,-1.806e-05,0.0,0 STARLINK-3840,1 52466U 22049R   24109.45547237 -.00001806  00000-0 -95397-4 0  9997,2 52466  53.2162 277.8713 0001214  77.9521 282.1607 15.08839220108045,6917.883,95.438,540.588,538.908,0.0
52466.0,STARLINK-3840,PAYLOAD,2024-04-18 18:52:48,15.08836422,0.0001502,53.2164,276.3855,67.0185,293.0966,-0.0001108,-2.051e-05,0.0,0 STARLINK-3840,1 52466U 22049R   24109.78667716 -.00002051  00000-0 -11080-3 0  9997,2 52466  53.2164 276.3855 0001502  67.0185 293.0966 15.08836422108257,6917.891,95.438,540.795,538.717,0.0
52466.0,STARLINK-3840,PAYLOAD,2024-04-19 10:46:40,15.08829013,0.0001401,53.2161,273.411,72.3768,287.7377,5.1131e-05,5.26e-06,0.0,0 STARLINK-3840,1 52466U 22049R   24110.44907608  .00000526  00000-0  51131-4 0  9994,2 52466  53.2161 273.4110 0001401  72.3768 287.7377 15.08829013108197,6917.914,95.438,540.748,538.81,0.0
52466.0,STARLINK-3840,PAYLOAD,2024-04-19 17:08:12,15.08836909,0.0001971,53.2167,272.2264,63.2683,296.8511,0.00011272,1.506e-05,0.0,0 STARLINK-3840,1 52466U 22049R   24110.71403161  .00001506  00000-0  11272-3 0  9999,2 52466  53.2167 272.2264 0001971  63.2683 296.8511 15.08836909108392,6917.89,95.438,541.118,538.391,0.0
52466.0,STARLINK-3840,PAYLOAD,2024-04-20 10:37:24,15.08863733,0.0001478,53.2163,268.951,71.8402,288.2751,0.00033588,5.065e-05,0.0,0 STARLINK-3840,1 52466U 22049R   24111.44264075  .00005065  00000-0  33588-3 0  9997,2 52466  53.2163 268.9510 0001478  71.8402 288.2751 15.08863733108509,6917.808,95.436,540.695,538.65,0.0
52466.0,STARLINK-3840,PAYLOAD,2024-04-20 13:48:10,15.08865664,0.0001411,53.2162,268.3559,76.2128,283.9021,0.00035237,5.328e-05,0.0,0 STARLINK-3840,1 52466U 22049R   24111.57511871  .00005328  00000-0  35237-3 0  9995,2 52466  53.2162 268.3559 0001411  76.2128 283.9021 15.08865664108367,6917.802,95.436,540.643,538.691,0.0
52466.0,STARLINK-3840,PAYLOAD,2024-04-20 16:58:57,15.08871833,0.0001326,53.215,267.7608,81.2347,278.8795,0.00053925,8.312e-05,0.0,0 STARLINK-3840,1 52466U 22049R   24111.70760600  .00008312  00000-0  53925-3 0  9996,2 52466  53.2150 267.7608 0001326  81.2347 278.8795 15.08871833108542,6917.783,95.436,540.565,538.731,0.0
52466.0,STARLINK-3840,PAYLOAD,2024-04-21 13:38:56,15.08875288,0.0001518,53.2159,263.8891,94.1194,265.9971,7.6788e-05,9.35e-06,0.0,0 STARLINK-3840,1 52466U 22049R   24112.56870895  .00000935  00000-0  76788-4 0  9995,2 52466  53.2159 263.8891 0001518  94.1194 265.9971 15.08875288108516,6917.773,95.435,540.688,538.587,0.0
52466.0,STARLINK-3840,PAYLOAD,2024-04-21 20:00:29,15.08857317,0.0001436,53.2168,262.7089,64.0656,296.0484,-0.00026671,-4.532e-05,0.0,0 STARLINK-3840,1 52466U 22049R   24112.83367099 -.00004532  00000-0 -26671-3 0  9996,2 52466  53.2168 262.7089 0001436  64.0656 296.0484 15.08857317108710,6917.827,95.436,540.686,538.699,0.0
52466.0,STARLINK-3840,PAYLOAD,2024-04-22 10:18:58,15.08836224,0.0001685,53.2173,260.0295,101.636,258.4821,-0.0003828,-6.375e-05,0.0,0 STARLINK-3840,1 52466U 22049R   24113.42983976 -.00006375  00000-0 -38280-3 0  9996,2 52466  53.2173 260.0295 0001685 101.6360 258.4821 15.08836224108803,6917.892,95.438,540.923,538.591,0.0
52466.0,STARLINK-3840,PAYLOAD,2024-04-22 16:40:32,15.08831898,0.0001266,53.217,258.8404,88.8647,271.2491,-0.00032978,-5.531e-05,0.0,0 STARLINK-3840,1 52466U 22049R   24113.69481883 -.00005531  00000-0 -32978-3 0  9996,2 52466  53.2170 258.8404 0001266  88.8647 271.2491 15.08831898108848,6917.905,95.438,540.646,538.894,0.0
52466.0,STARLINK-3840,PAYLOAD,2024-04-23 14:55:56,15.08819975,0.0001295,53.2166,254.6777,89.1999,270.9141,-8.0077e-05,-1.561e-05,0.0,0 STARLINK-3840,1 52466U 22049R   24114.62218523 -.00001561  00000-0 -80077-4 0  9992,2 52466  53.2166 254.6777 0001295  89.1999 270.9141 15.08819975108824,6917.942,95.439,540.702,538.911,0.0
52466.0,STARLINK-3840,PAYLOAD,2024-04-23 19:42:05,15.08824251,0.0001457,53.2168,253.7825,76.6372,283.4782,7.3532e-05,8.82e-06,0.0,0 STARLINK-3840,1 52466U 22049R   24114.82090055  .00000882  00000-0  73532-4 0  9993,2 52466  53.2168 253.7825 0001457  76.6372 283.4782 15.08824251109011,6917.929,95.439,540.801,538.786,0.0
52466.0,STARLINK-3840,PAYLOAD,2024-04-24 13:11:21,15.08820757,0.0001505,53.2166,250.5084,86.7922,273.3243,0.00017684,2.526e-05,0.0,0 STARLINK-3840,1 52466U 22049R   24115.54954944  .00002526  00000-0  17684-3 0  9991,2 52466  53.2166 250.5084 0001505  86.7922 273.3243 15.08820757108968,6917.939,95.439,540.845,538.763,0.0
52466.0,STARLINK-3840,PAYLOAD,2024-04-24 16:22:07,15.08823262,0.0001495,53.2173,249.9146,83.0882,277.028,0.00018707,2.689e-05,0.0,0 STARLINK-3840,1 52466U 22049R   24115.68203057  .00002689  00000-0  18707-3 0  9995,2 52466  53.2173 249.9146 0001495  83.0882 277.0280 15.08823262108988,6917.932,95.439,540.831,538.762,0.0
52466.0,STARLINK-3840,PAYLOAD,2024-04-25 13:02:08,15.08843053,0.0001708,53.2166,246.0532,105.2658,254.8523,9.8736e-05,1.284e-05,0.0,0 STARLINK-3840,1 52466U 22049R   24116.54314828  .00001284  00000-0  98736-4 0  9991,2 52466  53.2166 246.0532 0001708 105.2658 254.8523 15.08843053109278,6917.871,95.437,540.918,538.554,0.0
52466.0,STARLINK-3840,PAYLOAD,2024-04-25 14:37:31,15.0884319,0.0001698,53.2171,245.7559,107.815,252.3027,9.7421e-05,1.263e-05,0.0,0 STARLINK-3840,1 52466U 22049R   24116.60938820  .00001263  00000-0  97421-4 0  9999,2 52466  53.2171 245.7559 0001698 107.8150 252.3027 15.08843190109120,6917.871,95.437,540.91,538.561,0.0
52466.0,STARLINK-3840,PAYLOAD,2024-04-25 16:12:54,15.08838488,0.000151,53.217,245.4605,78.3889,281.7272,0.00013229,1.818e-05,0.0,0 STARLINK-3840,1 52466U 22049R   24116.67563153  .00001818  00000-0  13229-3 0  9998,2 52466  53.2170 245.4605 0001510  78.3889 281.7272 15.08838488109135,6917.885,95.438,540.795,538.705,0.0
52466.0,STARLINK-3840,PAYLOAD,2024-04-26 14:28:18,15.08843634,0.0001529,53.2169,241.299,76.3682,283.7481,9.0383e-05,1.151e-05,0.0,0 STARLINK-3840,1 52466U 22049R   24117.60299080  .00001151  00000-0  90383-4 0  9994,2 52466  53.2169 241.2990 0001529  76.3682 283.7481 15.08843634109271,6917.869,95.437,540.792,538.677,0.0
52466.0,STARLINK-3840,PAYLOAD,2024-04-27 01:36:00,15.08841259,0.0001461,53.217,239.2176,77.2095,282.9061,5.9486e-05,6.59e-06,0.0,0 STARLINK-3840,1 52466U 22049R   24118.06667271  .00000659  00000-0  59486-4 0  9997,2 52466  53.2170 239.2176 0001461  77.2095 282.9061 15.08841259109501,6917.877,95.437,540.752,538.731,0.0
52466.0,STARLINK-3840,PAYLOAD,2024-04-27 12:43:41,15.0885327,0.0001691,53.2159,237.1368,49.0974,311.0164,0.00014857,2.078e-05,0.0,0 STARLINK-3840,1 52466U 22049R   24118.53034039  .00002078  00000-0  14857-3 0  9998,2 52466  53.2159 237.1368 0001691  49.0974 311.0164 15.08853270109577,6917.84,95.437,540.875,538.535,0.0
52466.0,STARLINK-3840,PAYLOAD,2024-04-27 14:19:04,15.08854616,0.0001212,53.2162,236.8381,75.7629,284.3498,0.00016286,2.306e-05,0.0,0 STARLINK-3840,1 52466U 22049R   24118.59657720  .00002306  00000-0  16286-3 0  9994,2 52466  53.2162 236.8381 0001212  75.7629 284.3498 15.08854616109425,6917.836,95.437,540.539,538.862,0.0
52466.0,STARLINK-3840,PAYLOAD,2024-04-28 14:09:53,15.08825607,0.0001395,53.2182,232.3758,89.4523,270.6629,-6.8789e-05,-1.382e-05,0.0,0 STARLINK-3840,1 52466U 22049R   24119.59019713 -.00001382  00000-0 -68789-4 0  9990,2 52466  53.2182 232.3758 0001395  89.4523 270.6629 15.08825607109739,6917.924,95.438,540.754,538.824,0.0
52466.0,STARLINK-3840,PAYLOAD,2024-04-29 14:00:40,15.08830814,0.000115,53.2172,227.9157,87.5975,272.5148,-0.00014369,-2.573e-05,0.0,0 STARLINK-3840,1 52466U 22049R   24120.58380147 -.00002573  00000-0 -14369-3 0  9990,2 52466  53.2172 227.9157 0001150  87.5975 272.5148 15.08830814109722,6917.908,95.438,540.569,538.978,0.0
52466.0,STARLINK-3840,PAYLOAD,2024-04-30 13:51:28,15.08819924,0.0001228,53.2174,223.4565,85.3428,274.7705,0.00012293,1.668e-05,0.0,0 STARLINK-3840,1 52466U 22049R   24121.57741044  .00001668  00000-0  12293-3 0  9993,2 52466  53.2174 223.4565 0001228  85.3428 274.7705 15.08819924109871,6917.942,95.439,540.656,538.957,0.0
